     3.02           N: GNSS NAV DATA    C: BEIDOU           RINEX VERSION / TYPE                                                
Версия от 220825                        20231231 01:16:53UTCPGM / RUN BY / DATE                                                 
                                                            END OF HEADER                                                       
C19 2023 12 27 11 00 00-0.946069136262D-03 0.556887869152D-11 0.000000000000D+00
     0.100000000000D+01-0.157640625000D+03 0.319084719731D-08 0.454870817915D+00
    -0.766618177295D-05 0.730346306227D-03 0.102077610791D-04 0.528264291763D+04
     0.298800000000D+06-0.149011611938D-07 0.135161693113D-01-0.465661287308D-09
     0.976618635926D+00 0.165078125000D+03-0.110490250600D+01-0.635776482642D-08
     0.260010830495D-09 0.000000000000D+00 0.938000000000D+03 0.000000000000D+00
     0.200000000000D+01 0.000000000000D+00 0.960000000000D-08 0.960000000000D-08
     0.298800000000D+06
C20 2023 12 27 11 00 00-0.910041853785D-05-0.351478846028D-10 0.000000000000D+00
     0.100000000000D+01-0.152625000000D+03 0.317870383434D-08 0.584764031003D+00
    -0.743148848414D-05 0.532509991899D-03 0.108596868813D-04 0.528264246559D+04
     0.298800000000D+06 0.619329512119D-07 0.141433032739D-01 0.162981450558D-07
     0.976608066343D+00 0.151906250000D+03-0.495916519039D+00-0.629133348786D-08
     0.258225041824D-09 0.000000000000D+00 0.938000000000D+03 0.000000000000D+00
     0.200000000000D+01 0.000000000000D+00 0.119000000000D-07 0.119000000000D-07
     0.298800000000D+06
C21 2023 12 27 11 00 00-0.965892453678D-03 0.166711089378D-11 0.000000000000D+00
     0.100000000000D+01-0.131421875000D+03 0.324620664611D-08-0.142575844593D+01
    -0.655883923173D-05 0.503901392222D-03 0.992650166154D-05 0.528263297463D+04
     0.298800000000D+06-0.558793544769D-08 0.152510189919D-01-0.149011611938D-07
     0.975890630836D+00 0.169031250000D+03-0.799449866056D+00-0.634990735627D-08
     0.222866426138D-09 0.000000000000D+00 0.938000000000D+03 0.000000000000D+00
     0.200000000000D+01 0.000000000000D+00 0.113000000000D-07 0.113000000000D-07
     0.298800000000D+06
C22 2023 12 27 11 00 00-0.170605489984D-03 0.145332634816D-10 0.000000000000D+00
     0.100000000000D+01-0.136265625000D+03 0.329120852062D-08-0.179951345680D+01
    -0.670459121466D-05 0.394332571887D-03 0.999076291919D-05 0.528263538933D+04
     0.298800000000D+06 0.186264514923D-07 0.151737023085D-01 0.232830643654D-08
     0.975899806258D+00 0.168765625000D+03 0.354925365095D+00-0.636062208830D-08
     0.236081262304D-09 0.000000000000D+00 0.938000000000D+03 0.000000000000D+00
     0.200000000000D+01 0.000000000000D+00 0.137000000000D-07 0.137000000000D-07
     0.298800000000D+06
C23 2023 12 27 11 00 00-0.797821558081D-03 0.537880850970D-11 0.000000000000D+00
     0.100000000000D+01-0.180937500000D+02 0.445554273410D-08-0.997578720518D+00
    -0.100955367088D-05 0.244229449891D-03 0.566989183426D-05 0.528263743401D+04
     0.298800000000D+06 0.186264514923D-08 0.210808455240D+01 0.284053385258D-07
     0.944780563137D+00 0.238203125000D+03 0.692682464891D+00-0.689743016280D-08
    -0.535379443560D-09 0.000000000000D+00 0.938000000000D+03 0.000000000000D+00
     0.200000000000D+01 0.000000000000D+00 0.220000000000D-07 0.220000000000D-07
     0.298800000000D+06
C24 2023 12 27 11 00 00 0.732388463803D-03 0.365947272485D-10 0.000000000000D+00
     0.100000000000D+01-0.171406250000D+02 0.448411535283D-08 0.418809749747D+00
    -0.882893800735D-06 0.859063584357D-03 0.562379136682D-05 0.528262849999D+04
     0.298800000000D+06-0.465661287308D-09 0.210790181199D+01 0.102445483208D-07
     0.944773197345D+00 0.238546875000D+03 0.837742465073D+00-0.693600319809D-08
    -0.488234622646D-09 0.000000000000D+00 0.938000000000D+03 0.000000000000D+00
     0.200000000000D+01 0.000000000000D+00 0.380000000000D-08 0.380000000000D-08
     0.298800000000D+06
C25 2023 12 27 11 00 00 0.287742121145D-03 0.864019966684D-11 0.000000000000D+00
     0.100000000000D+01-0.163281250000D+02 0.450304471274D-08-0.326913709611D+00
    -0.846572220326D-06 0.616823672317D-03 0.540632754564D-05 0.528261229515D+04
     0.298800000000D+06-0.284053385258D-07 0.208400284494D+01-0.135041773319D-07
     0.946252682971D+00 0.241843750000D+03 0.774577530366D+00-0.695600403120D-08
    -0.509664086698D-09 0.000000000000D+00 0.938000000000D+03 0.000000000000D+00
     0.200000000000D+01 0.000000000000D+00 0.500000000000D-09 0.500000000000D-09
     0.298800000000D+06
C26 2023 12 27 11 00 00-0.226135482080D-03-0.542321743069D-11 0.000000000000D+00
     0.100000000000D+01-0.165781250000D+02 0.443554190098D-08 0.129961795126D+01
    -0.872649252415D-06 0.942850136198D-03 0.558281317353D-05 0.528260971260D+04
     0.298800000000D+06-0.218860805035D-07 0.208460447731D+01-0.419095158577D-08
     0.946303239957D+00 0.242484375000D+03 0.714603765658D+00-0.689493005865D-08
    -0.485377360773D-09 0.000000000000D+00 0.938000000000D+03 0.000000000000D+00
     0.200000000000D+01 0.000000000000D+00-0.520000000000D-08-0.520000000000D-08
     0.298800000000D+06
C27 2023 12 27 11 00 00 0.248135998845D-03 0.545252731854D-11 0.000000000000D+00
     0.100000000000D+01 0.158781250000D+03 0.370586865002D-08 0.189167558125D+01
     0.785244628787D-05 0.487537356093D-03 0.118138268590D-05 0.528262581444D+04
     0.298800000000D+06 0.372529029846D-07-0.207181432059D+01-0.363215804100D-07
     0.960708617690D+00 0.337593750000D+03 0.112130609378D+01-0.703886462554D-08
     0.307869966877D-09 0.000000000000D+00 0.938000000000D+03 0.000000000000D+00
     0.200000000000D+01 0.000000000000D+00-0.450000000000D-08-0.450000000000D-08
     0.298800000000D+06
C28 2023 12 27 11 00 00 0.187942176126D-03 0.441158221065D-11 0.000000000000D+00
     0.100000000000D+01 0.141812500000D+03 0.377480009272D-08-0.956224607004D+00
     0.706408172846D-05 0.268901465461D-03 0.156089663506D-05 0.528263566399D+04
     0.298800000000D+06 0.405125319958D-07-0.207205115825D+01 0.493600964546D-07
     0.960587161842D+00 0.329781250000D+03-0.160200304657D+01-0.698600528087D-08
     0.286083345091D-09 0.000000000000D+00 0.938000000000D+03 0.000000000000D+00
     0.200000000000D+01 0.000000000000D+00-0.440000000000D-08-0.440000000000D-08
     0.298800000000D+06
C29 2023 12 27 11 00 00 0.220102956519D-03 0.504574160232D-11 0.000000000000D+00
     0.100000000000D+01 0.171296875000D+03 0.376587114936D-08 0.107039492517D+01
     0.839075073600D-05 0.574442092329D-04 0.236881896853D-05 0.528262521553D+04
     0.298800000000D+06 0.698491930962D-08-0.211155417862D+01-0.298023223877D-07
     0.958815939630D+00 0.311265625000D+03 0.387271507870D+00-0.702922136671D-08
     0.286083345091D-09 0.000000000000D+00 0.938000000000D+03 0.000000000000D+00
     0.200000000000D+01 0.000000000000D+00-0.200000000000D-09-0.200000000000D-09
     0.298800000000D+06
C30 2023 12 27 11 00 00-0.117610907182D-04-0.146815892776D-11 0.000000000000D+00
     0.200000000000D+01 0.174531250000D+03 0.379265797943D-08 0.205944930104D+01
     0.853557139635D-05 0.443611410446D-03 0.181235373020D-05 0.528262084007D+04
     0.298800000000D+06 0.153668224812D-07-0.211106010583D+01-0.204890966415D-07
     0.958767732090D+00 0.321609375000D+03 0.218947521689D+00-0.704743641116D-08
     0.292512184307D-09 0.000000000000D+00 0.938000000000D+03 0.000000000000D+00
     0.200000000000D+01 0.000000000000D+00-0.990000000000D-08-0.990000000000D-08
     0.298800000000D+06
C32 2023 12 27 11 00 00-0.546913244762D-03-0.381294995577D-11 0.000000000000D+00
     0.100000000000D+01-0.147953125000D+03 0.316048878990D-08 0.213433030777D+01
    -0.730250030756D-05 0.403849873692D-03 0.111535191536D-04 0.528264269638D+04
     0.298800000000D+06-0.158324837685D-07 0.708791270287D-02 0.279396772385D-08
     0.975379436057D+00 0.142625000000D+03-0.121319448578D+01-0.631919179113D-08
     0.232509684962D-09 0.000000000000D+00 0.938000000000D+03 0.000000000000D+00
     0.200000000000D+01 0.000000000000D+00-0.780000000000D-08-0.780000000000D-08
     0.298800000000D+06
C33 2023 12 27 11 00 00-0.941981561482D-03-0.292210700081D-12 0.000000000000D+00
     0.100000000000D+01-0.126312500000D+03 0.333763902606D-08 0.270053749065D+01
    -0.620447099209D-05 0.222800998017D-03 0.103819184005D-04 0.528263572502D+04
     0.298800000000D+06 0.651925802231D-08 0.696345202144D-02 0.419095158577D-08
     0.975411560275D+00 0.157765625000D+03-0.204331037562D+00-0.636276503470D-08
     0.209294432239D-09 0.000000000000D+00 0.938000000000D+03 0.000000000000D+00
     0.200000000000D+01 0.000000000000D+00-0.450000000000D-07-0.450000000000D-07
     0.298800000000D+06
C34 2023 12 27 11 00 00 0.333979609422D-03 0.834798896676D-11 0.000000000000D+00
     0.100000000000D+01 0.142796875000D+03 0.377480009272D-08-0.139478511134D+01
     0.711577013135D-05 0.482606585137D-03 0.224076211453D-05 0.528262813568D+04
     0.298800000000D+06-0.116415321827D-07-0.210952183577D+01 0.135041773319D-07
     0.956930089008D+00 0.310703125000D+03 0.467239282643D+00-0.699743432837D-08
     0.263582407837D-09 0.000000000000D+00 0.938000000000D+03 0.000000000000D+00
     0.200000000000D+01 0.000000000000D+00-0.610000000000D-08-0.610000000000D-08
     0.298800000000D+06
C35 2023 12 27 11 00 00 0.471200677566D-03-0.878319639242D-11 0.000000000000D+00
     0.100000000000D+01 0.160359375000D+03 0.377408577725D-08 0.289266889447D+00
     0.796141102910D-05 0.772577361204D-03 0.238697975874D-05 0.528262525177D+04
     0.298800000000D+06-0.977888703346D-08-0.210958144236D+01-0.139698386192D-07
     0.957004141921D+00 0.308531250000D+03 0.293846735896D+00-0.701564937281D-08
     0.273582824394D-09 0.000000000000D+00 0.938000000000D+03 0.000000000000D+00
     0.200000000000D+01 0.000000000000D+00-0.270000000000D-08-0.270000000000D-08
     0.298800000000D+06
